[{"OBJECT_NAME":"COSMOS 2428","OBJECT_ID":"2007-029A","EPOCH":"2026-03-09T23:01:40.069056","MEAN_MOTION":14.1294624,"ECCENTRICITY":0.00091204,"INCLINATION":70.9433,"RA_OF_ASC_NODE":202.7763,"ARG_OF_PERICENTER":276.7113,"MEAN_ANOMALY":83.297,"EPHEMERIS_TYPE":0,"CLASSIFICATION_TYPE":"U","NORAD_CAT_ID":31792,"ELEMENT_SET_NO":999,"REV_AT_EPOCH":96413,"BSTAR":6.0875257e-5,"MEAN_MOTION_DOT":6.6e-7,"MEAN_MOTION_DDOT":0},{"OBJECT_NAME":"FENGYUN 1C DEB","OBJECT_ID":"1999-025BYK","EPOCH":"2026-03-09T02:37:45.577920","MEAN_MOTION":14.14593723,"ECCENTRICITY":0.00317255,"INCLINATION":98.817,"RA_OF_ASC_NODE":123.34,"ARG_OF_PERICENTER":27.1838,"MEAN_ANOMALY":333.0988,"EPHEMERIS_TYPE":0,"CLASSIFICATION_TYPE":"U","NORAD_CAT_ID":31544,"ELEMENT_SET_NO":999,"REV_AT_EPOCH":96978,"BSTAR":0.00075610708,"MEAN_MOTION_DOT":1.416e-5,"MEAN_MOTION_DDOT":0}]
